{
  "type": "FeatureCollection",
  "features": [
    {
      "type": "Feature",
      "properties": {
        "norad_id": 33805,
        "name": "COSMOS 2251 DEB",
        "group": "cosmos-2251-debris",
        "lat": -24.385270573619266,
        "lon": -52.09589042032236,
        "alt_km": 747.3940929798255,
        "timestamp": "2025-12-10T14:53:37.480740+00:00",
        "meta_object_name": "COSMOS 2251 DEB",
        "meta_object_id": "1993-036AW",
        "meta_epoch": "2025-12-10T06:46:36.110496",
        "meta_mean_motion": 14.57847021,
        "meta_eccentricity": 0.00602959,
        "meta_inclination": 74.0305,
        "meta_ra_of_asc_node": 316.0058,
        "meta_arg_of_pericenter": 145.694,
        "meta_mean_anomaly": 214.8143,
        "meta_ephemeris_type": 0,
        "meta_classification_type": "U",
        "meta_norad_cat_id": 33805,
        "meta_element_set_no": 999,
        "meta_rev_at_epoch": 89191,
        "meta_bstar": 0.00038795471,
        "meta_mean_motion_dot": 1.791e-05,
        "meta_mean_motion_ddot": 0,
        "tle_line1": "1 33805U 93036AW  25344.28236239  .00001791  00000+0  38795-3 0  9995",
        "tle_line2": "2 33805  74.0305 316.0058 0060295 145.6940 214.8143 14.57847021891914"
      },
      "geometry": {
        "type": "Point",
        "coordinates": [
          -52.09589042032236,
          -24.385270573619266
        ]
      }
    },
    {
      "type": "Feature",
      "properties": {
        "norad_id": 33811,
        "name": "COSMOS 2251 DEB",
        "group": "cosmos-2251-debris",
        "lat": -21.091607159545735,
        "lon": 133.47337301481568,
        "alt_km": 577.149157860672,
        "timestamp": "2025-12-10T14:53:37.480749+00:00",
        "meta_object_name": "COSMOS 2251 DEB",
        "meta_object_id": "1993-036BC",
        "meta_epoch": "2025-12-10T08:17:22.878816",
        "meta_mean_motion": 15.0514338,
        "meta_eccentricity": 0.00307092,
        "meta_inclination": 73.8381,
        "meta_ra_of_asc_node": 307.6214,
        "meta_arg_of_pericenter": 28.5111,
        "meta_mean_anomaly": 122.9569,
        "meta_ephemeris_type": 0,
        "meta_classification_type": "U",
        "meta_norad_cat_id": 33811,
        "meta_element_set_no": 999,
        "meta_rev_at_epoch": 89982,
        "meta_bstar": 0.0018554716,
        "meta_mean_motion_dot": 0.00026775,
        "meta_mean_motion_ddot": 0,
        "tle_line1": "1 33811U 93036BC  25344.34540369  .00026775  00000+0  18555-2 0  9991",
        "tle_line2": "2 33811  73.8381 307.6214 0030709  28.5111 122.9569 15.05143380899828"
      },
      "geometry": {
        "type": "Point",
        "coordinates": [
          133.47337301481568,
          -21.091607159545735
        ]
      }
    },
    {
      "type": "Feature",
      "properties": {
        "norad_id": 33815,
        "name": "COSMOS 2251 DEB",
        "group": "cosmos-2251-debris",
        "lat": 4.29757153879235,
        "lon": -0.20639137839689098,
        "alt_km": 515.5335872202904,
        "timestamp": "2025-12-10T14:53:37.480759+00:00",
        "meta_object_name": "COSMOS 2251 DEB",
        "meta_object_id": "1993-036BG",
        "meta_epoch": "2025-12-10T00:34:36.803712",
        "meta_mean_motion": 15.1696459,
        "meta_eccentricity": 0.00027751,
        "meta_inclination": 73.9523,
        "meta_ra_of_asc_node": 182.2836,
        "meta_arg_of_pericenter": 231.9732,
        "meta_mean_anomaly": 286.9539,
        "meta_ephemeris_type": 0,
        "meta_classification_type": "U",
        "meta_norad_cat_id": 33815,
        "meta_element_set_no": 999,
        "meta_rev_at_epoch": 88329,
        "meta_bstar": 0.0073023687,
        "meta_mean_motion_dot": 0.00147157,
        "meta_mean_motion_ddot": 0,
        "tle_line1": "1 33815U 93036BG  25344.02403708  .00147157  00000+0  73024-2 0  9995",
        "tle_line2": "2 33815  73.9523 182.2836 0002775 231.9732 286.9539 15.16964590883297"
      },
      "geometry": {
        "type": "Point",
        "coordinates": [
          -0.20639137839689098,
          4.29757153879235
        ]
      }
    },
    {
      "type": "Feature",
      "properties": {
        "norad_id": 33816,
        "name": "COSMOS 2251 DEB",
        "group": "cosmos-2251-debris",
        "lat": -9.623800341840624,
        "lon": 106.1797463065003,
        "alt_km": 1089.0761008205636,
        "timestamp": "2025-12-10T14:53:37.480769+00:00",
        "meta_object_name": "COSMOS 2251 DEB",
        "meta_object_id": "1993-036BH",
        "meta_epoch": "2025-12-09T18:05:34.178784",
        "meta_mean_motion": 13.81777486,
        "meta_eccentricity": 0.026487,
        "meta_inclination": 73.8946,
        "meta_ra_of_asc_node": 110.4563,
        "meta_arg_of_pericenter": 123.9698,
        "meta_mean_anomaly": 238.6904,
        "meta_ephemeris_type": 0,
        "meta_classification_type": "U",
        "meta_norad_cat_id": 33816,
        "meta_element_set_no": 999,
        "meta_rev_at_epoch": 84632,
        "meta_bstar": 0.0008546006,
        "meta_mean_motion_dot": 1.173e-05,
        "meta_mean_motion_ddot": 0,
        "tle_line1": "1 33816U 93036BH  25343.75386781  .00001173  00000+0  85460-3 0  9991",
        "tle_line2": "2 33816  73.8946 110.4563 0264870 123.9698 238.6904 13.81777486846322"
      },
      "geometry": {
        "type": "Point",
        "coordinates": [
          106.1797463065003,
          -9.623800341840624
        ]
      }
    },
    {
      "type": "Feature",
      "properties": {
        "norad_id": 33818,
        "name": "COSMOS 2251 DEB",
        "group": "cosmos-2251-debris",
        "lat": 69.28059651955819,
        "lon": -58.38857053580424,
        "alt_km": 511.8518082389219,
        "timestamp": "2025-12-10T14:53:37.480778+00:00",
        "meta_object_name": "COSMOS 2251 DEB",
        "meta_object_id": "1993-036BK",
        "meta_epoch": "2025-12-10T07:16:21.222624",
        "meta_mean_motion": 15.12178894,
        "meta_eccentricity": 0.00277204,
        "meta_inclination": 74.0757,
        "meta_ra_of_asc_node": 171.2766,
        "meta_arg_of_pericenter": 160.9618,
        "meta_mean_anomaly": 14.7346,
        "meta_ephemeris_type": 0,
        "meta_classification_type": "U",
        "meta_norad_cat_id": 33818,
        "meta_element_set_no": 999,
        "meta_rev_at_epoch": 89825,
        "meta_bstar": 0.0033414623,
        "meta_mean_motion_dot": 0.00058639,
        "meta_mean_motion_ddot": 0,
        "tle_line1": "1 33818U 93036BK  25344.30302341  .00058639  00000+0  33415-2 0  9996",
        "tle_line2": "2 33818  74.0757 171.2766 0027720 160.9618  14.7346 15.12178894898257"
      },
      "geometry": {
        "type": "Point",
        "coordinates": [
          -58.38857053580424,
          69.28059651955819
        ]
      }
    },
    {
      "type": "Feature",
      "properties": {
        "norad_id": 33819,
        "name": "COSMOS 2251 DEB",
        "group": "cosmos-2251-debris",
        "lat": 56.9373904386588,
        "lon": 7.856341259427507,
        "alt_km": 732.1879435864812,
        "timestamp": "2025-12-10T14:53:37.480788+00:00",
        "meta_object_name": "COSMOS 2251 DEB",
        "meta_object_id": "1993-036BL",
        "meta_epoch": "2025-12-10T03:20:40.838784",
        "meta_mean_motion": 14.32207831,
        "meta_eccentricity": 0.0088985,
        "meta_inclination": 74.1789,
        "meta_ra_of_asc_node": 214.5492,
        "meta_arg_of_pericenter": 76.6631,
        "meta_mean_anomaly": 81.8987,
        "meta_ephemeris_type": 0,
        "meta_classification_type": "U",
        "meta_norad_cat_id": 33819,
        "meta_element_set_no": 999,
        "meta_rev_at_epoch": 87458,
        "meta_bstar": 0.000847282,
        "meta_mean_motion_dot": 2.361e-05,
        "meta_mean_motion_ddot": 0,
        "tle_line1": "1 33819U 93036BL  25344.13936156  .00002361  00000+0  84728-3 0  9990",
        "tle_line2": "2 33819  74.1789 214.5492 0088985  76.6631  81.8987 14.32207831874580"
      },
      "geometry": {
        "type": "Point",
        "coordinates": [
          7.856341259427507,
          56.9373904386588
        ]
      }
    },
    {
      "type": "Feature",
      "properties": {
        "norad_id": 33821,
        "name": "COSMOS 2251 DEB",
        "group": "cosmos-2251-debris",
        "lat": 12.130249289044368,
        "lon": -36.2118575316579,
        "alt_km": 456.4985961958,
        "timestamp": "2025-12-10T14:53:37.480797+00:00",
        "meta_object_name": "COSMOS 2251 DEB",
        "meta_object_id": "1993-036BN",
        "meta_epoch": "2025-12-10T03:08:28.997952",
        "meta_mean_motion": 15.25053477,
        "meta_eccentricity": 0.00525576,
        "meta_inclination": 74.0302,
        "meta_ra_of_asc_node": 148.3514,
        "meta_arg_of_pericenter": 182.5857,
        "meta_mean_anomaly": 177.508,
        "meta_ephemeris_type": 0,
        "meta_classification_type": "U",
        "meta_norad_cat_id": 33821,
        "meta_element_set_no": 999,
        "meta_rev_at_epoch": 74961,
        "meta_bstar": 0.0016907876,
        "meta_mean_motion_dot": 0.0004419,
        "meta_mean_motion_ddot": 0,
        "tle_line1": "1 33821U 93036BN  25344.13089118  .00044190  00000+0  16908-2 0  9990",
        "tle_line2": "2 33821  74.0302 148.3514 0052557 182.5857 177.5080 15.25053477749615"
      },
      "geometry": {
        "type": "Point",
        "coordinates": [
          -36.2118575316579,
          12.130249289044368
        ]
      }
    }
  ]
}